{
  "type": "FeatureCollection",
  "features": [
    {
      "type": "Feature",
      "properties": {
        "norad_id": 37061,
        "name": "FENGYUN 1C DEB",
        "group": "fengyun-1c-debris",
        "lat": 62.91288986244131,
        "lon": -101.18910928398527,
        "alt_km": 1700.1533058101531,
        "timestamp": "2025-12-27T17:24:57.694694+00:00",
        "meta_object_name": "FENGYUN 1C DEB",
        "meta_object_id": "1999-025EEV",
        "meta_epoch": "2025-12-26T09:45:30.875040",
        "meta_mean_motion": 13.13638059,
        "meta_eccentricity": 0.0800883,
        "meta_inclination": 98.0823,
        "meta_ra_of_asc_node": 61.6627,
        "meta_arg_of_pericenter": 331.6918,
        "meta_mean_anomaly": 24.2786,
        "meta_ephemeris_type": 0,
        "meta_classification_type": "U",
        "meta_norad_cat_id": 37061,
        "meta_element_set_no": 999,
        "meta_rev_at_epoch": 8335,
        "meta_bstar": 0.0027336,
        "meta_mean_motion_dot": 5.286e-05,
        "meta_mean_motion_ddot": 0,
        "tle_line1": "1 37061U 99025EEV 25360.40660735  .00005286  00000+0  27336-2 0  9992",
        "tle_line2": "2 37061  98.0823  61.6627 0800883 331.6918  24.2786 13.13638059 83352"
      },
      "geometry": {
        "type": "Point",
        "coordinates": [
          -101.18910928398527,
          62.91288986244131
        ]
      }
    },
    {
      "type": "Feature",
      "properties": {
        "norad_id": 37065,
        "name": "FENGYUN 1C DEB",
        "group": "fengyun-1c-debris",
        "lat": -25.94762915805811,
        "lon": -4.820861773195409,
        "alt_km": 822.8316591908251,
        "timestamp": "2025-12-27T17:24:57.694704+00:00",
        "meta_object_name": "FENGYUN 1C DEB",
        "meta_object_id": "1999-025EEZ",
        "meta_epoch": "2025-12-13T18:30:23.335488",
        "meta_mean_motion": 13.59126537,
        "meta_eccentricity": 0.02987556,
        "meta_inclination": 103.2861,
        "meta_ra_of_asc_node": 162.9273,
        "meta_arg_of_pericenter": 240.3853,
        "meta_mean_anomaly": 116.7203,
        "meta_ephemeris_type": 0,
        "meta_classification_type": "U",
        "meta_norad_cat_id": 37065,
        "meta_element_set_no": 999,
        "meta_rev_at_epoch": 22216,
        "meta_bstar": 0.0032978969,
        "meta_mean_motion_dot": 3.181e-05,
        "meta_mean_motion_ddot": 0,
        "tle_line1": "1 37065U 99025EEZ 25347.77110342  .00003181  00000+0  32979-2 0  9996",
        "tle_line2": "2 37065 103.2861 162.9273 0298755 240.3853 116.7203 13.59126537222160"
      },
      "geometry": {
        "type": "Point",
        "coordinates": [
          -4.820861773195409,
          -25.94762915805811
        ]
      }
    },
    {
      "type": "Feature",
      "properties": {
        "norad_id": 37067,
        "name": "FENGYUN 1C DEB",
        "group": "fengyun-1c-debris",
        "lat": 63.35535188519575,
        "lon": -75.65204667212537,
        "alt_km": 772.4362132245751,
        "timestamp": "2025-12-27T17:24:57.694716+00:00",
        "meta_object_name": "FENGYUN 1C DEB",
        "meta_object_id": "1999-025EFB",
        "meta_epoch": "2025-12-22T18:48:08.678592",
        "meta_mean_motion": 14.00413613,
        "meta_eccentricity": 0.01569364,
        "meta_inclination": 99.539,
        "meta_ra_of_asc_node": 298.7728,
        "meta_arg_of_pericenter": 84.4124,
        "meta_mean_anomaly": 277.4913,
        "meta_ephemeris_type": 0,
        "meta_classification_type": "U",
        "meta_norad_cat_id": 37067,
        "meta_element_set_no": 999,
        "meta_rev_at_epoch": 57549,
        "meta_bstar": 0.0037911676,
        "meta_mean_motion_dot": 6.209e-05,
        "meta_mean_motion_ddot": 0,
        "tle_line1": "1 37067U 99025EFB 25356.78343378  .00006209  00000+0  37912-2 0  9992",
        "tle_line2": "2 37067  99.5390 298.7728 0156936  84.4124 277.4913 14.00413613575492"
      },
      "geometry": {
        "type": "Point",
        "coordinates": [
          -75.65204667212537,
          63.35535188519575
        ]
      }
    },
    {
      "type": "Feature",
      "properties": {
        "norad_id": 37069,
        "name": "FENGYUN 1C DEB",
        "group": "fengyun-1c-debris",
        "lat": -1.9905059776788923,
        "lon": 145.60157127990928,
        "alt_km": 853.517833367524,
        "timestamp": "2025-12-27T17:24:57.694726+00:00",
        "meta_object_name": "FENGYUN 1C DEB",
        "meta_object_id": "1999-025EFD",
        "meta_epoch": "2025-12-26T15:21:19.021536",
        "meta_mean_motion": 13.38018946,
        "meta_eccentricity": 0.04228912,
        "meta_inclination": 95.8487,
        "meta_ra_of_asc_node": 325.1775,
        "meta_arg_of_pericenter": 219.007,
        "meta_mean_anomaly": 137.9858,
        "meta_ephemeris_type": 0,
        "meta_classification_type": "U",
        "meta_norad_cat_id": 37069,
        "meta_element_set_no": 999,
        "meta_rev_at_epoch": 87894,
        "meta_bstar": 0.0014486319,
        "meta_mean_motion_dot": 1.264e-05,
        "meta_mean_motion_ddot": 0,
        "tle_line1": "1 37069U 99025EFD 25360.63980349  .00001264  00000+0  14486-2 0  9995",
        "tle_line2": "2 37069  95.8487 325.1775 0422891 219.0070 137.9858 13.38018946878943"
      },
      "geometry": {
        "type": "Point",
        "coordinates": [
          145.60157127990928,
          -1.9905059776788923
        ]
      }
    },
    {
      "type": "Feature",
      "properties": {
        "norad_id": 37077,
        "name": "FENGYUN 1C DEB",
        "group": "fengyun-1c-debris",
        "lat": -79.99132010528017,
        "lon": 142.06848039281633,
        "alt_km": 695.0956885731421,
        "timestamp": "2025-12-27T17:24:57.694738+00:00",
        "meta_object_name": "FENGYUN 1C DEB",
        "meta_object_id": "1999-025EFM",
        "meta_epoch": "2025-12-24T23:09:34.944192",
        "meta_mean_motion": 14.41222294,
        "meta_eccentricity": 0.00948197,
        "meta_inclination": 99.0343,
        "meta_ra_of_asc_node": 74.7944,
        "meta_arg_of_pericenter": 292.3292,
        "meta_mean_anomaly": 66.7866,
        "meta_ephemeris_type": 0,
        "meta_classification_type": "U",
        "meta_norad_cat_id": 37077,
        "meta_element_set_no": 999,
        "meta_rev_at_epoch": 85131,
        "meta_bstar": 0.00035268117,
        "meta_mean_motion_dot": 1.148e-05,
        "meta_mean_motion_ddot": 0,
        "tle_line1": "1 37077U 99025EFM 25358.96498778  .00001148  00000+0  35268-3 0  9990",
        "tle_line2": "2 37077  99.0343  74.7944 0094819 292.3292  66.7866 14.41222294851317"
      },
      "geometry": {
        "type": "Point",
        "coordinates": [
          142.06848039281633,
          -79.99132010528017
        ]
      }
    },
    {
      "type": "Feature",
      "properties": {
        "norad_id": 37079,
        "name": "FENGYUN 1C DEB",
        "group": "fengyun-1c-debris",
        "lat": 59.2306609742829,
        "lon": 122.51843843782393,
        "alt_km": 680.1023301558962,
        "timestamp": "2025-12-27T17:24:57.694748+00:00",
        "meta_object_name": "FENGYUN 1C DEB",
        "meta_object_id": "1999-025EFP",
        "meta_epoch": "2025-12-18T02:53:46.135104",
        "meta_mean_motion": 14.6004098,
        "meta_eccentricity": 0.00113024,
        "meta_inclination": 98.8569,
        "meta_ra_of_asc_node": 127.4448,
        "meta_arg_of_pericenter": 127.1954,
        "meta_mean_anomaly": 233.0277,
        "meta_ephemeris_type": 0,
        "meta_classification_type": "U",
        "meta_norad_cat_id": 37079,
        "meta_element_set_no": 999,
        "meta_rev_at_epoch": 64694,
        "meta_bstar": 0.0027811281,
        "meta_mean_motion_dot": 0.00013341,
        "meta_mean_motion_ddot": 0,
        "tle_line1": "1 37079U 99025EFP 25352.12067286  .00013341  00000+0  27811-2 0  9992",
        "tle_line2": "2 37079  98.8569 127.4448 0011302 127.1954 233.0277 14.60040980646944"
      },
      "geometry": {
        "type": "Point",
        "coordinates": [
          122.51843843782393,
          59.2306609742829
        ]
      }
    },
    {
      "type": "Feature",
      "properties": {
        "norad_id": 37081,
        "name": "FENGYUN 1C DEB",
        "group": "fengyun-1c-debris",
        "lat": -69.85663621443945,
        "lon": 178.31647619223813,
        "alt_km": 666.4740954300196,
        "timestamp": "2025-12-27T17:24:57.694758+00:00",
        "meta_object_name": "FENGYUN 1C DEB",
        "meta_object_id": "1999-025EFR",
        "meta_epoch": "2025-12-27T04:09:17.074656",
        "meta_mean_motion": 14.14158466,
        "meta_eccentricity": 0.0268303,
        "meta_inclination": 98.7021,
        "meta_ra_of_asc_node": 153.0983,
        "meta_arg_of_pericenter": 306.7251,
        "meta_mean_anomaly": 50.9549,
        "meta_ephemeris_type": 0,
        "meta_classification_type": "U",
        "meta_norad_cat_id": 37081,
        "meta_element_set_no": 999,
        "meta_rev_at_epoch": 58778,
        "meta_bstar": 0.0056615,
        "meta_mean_motion_dot": 0.00015225,
        "meta_mean_motion_ddot": 0,
        "tle_line1": "1 37081U 99025EFR 25361.17311429  .00015225  00000+0  56615-2 0  9998",
        "tle_line2": "2 37081  98.7021 153.0983 0268303 306.7251  50.9549 14.14158466587780"
      },
      "geometry": {
        "type": "Point",
        "coordinates": [
          178.31647619223813,
          -69.85663621443945
        ]
      }
    }
  ]
}